NORAD_CAT_ID,OBJECT_NAME,OBJECT_TYPE,EPOCH,MEAN_MOTION,ECCENTRICITY,INCLINATION,RA_OF_ASC_NODE,ARG_OF_PERICENTER,MEAN_ANOMALY,BSTAR,MEAN_MOTION_DOT,MEAN_MOTION_DDOT,TLE_LINE0,TLE_LINE1,TLE_LINE2,SEMIMAJOR_AXIS,PERIOD,APOGEE,PERIGEE,DECAYED
54089.0,STARLINK-5143,PAYLOAD,2022-11-28 16:00:00,15.73204554,0.0004126,53.2145,314.5933,6.7029,139.4334,0.00018876,0.00025965,0.0,0 STARLINK-5143,1 54089U 22136AQ  22332.66667824  .00025965  00000-0  18876-3 0  9997,2 54089  53.2145 314.5933 0004126   6.7029 139.4334 15.73204554  6642,6727.882,91.533,352.523,346.971,0.0
54089.0,STARLINK-5143,PAYLOAD,2022-11-28 22:00:01,15.73211281,0.0004008,53.2146,313.3551,8.3554,114.5484,0.00051249,0.00071981,0.0,0 STARLINK-5143,1 54089U 22136AQ  22332.91668981  .00071981  00000-0  51249-3 0  9990,2 54089  53.2146 313.3551 0004008   8.3554 114.5484 15.73211281  1309,6727.863,91.533,352.425,347.031,0.0
54089.0,STARLINK-5143,PAYLOAD,2022-11-29 14:00:01,15.73210817,0.00041,53.215,310.0549,1.5959,299.2538,-0.0002522,-0.00035903,0.0,0 STARLINK-5143,1 54089U 22136AQ  22333.58335648 -.00035903  00000-0 -25220-3 0  9991,2 54089  53.2150 310.0549 0004100   1.5959 299.2538 15.73210817  6784,6727.864000000001,91.533,352.48800000000006,346.971,0.0
54089.0,STARLINK-5143,PAYLOAD,2022-11-29 22:00:00,15.73257493,0.0003627,53.2164,308.4012,345.0515,44.6622,-0.0045467,-0.00597337,0.0,0 STARLINK-5143,1 54089U 22136AQ  22333.91667824 -.00597337  00000-0 -45467-2 0  9990,2 54089  53.2164 308.4012 0003627 345.0515  44.6622 15.73257493  6846,6727.731,91.53,352.036,347.156,0.0
54089.0,STARLINK-5143,PAYLOAD,2022-11-30 06:00:00,15.72964925,0.0004031,53.2173,306.7527,310.3894,168.048,-0.0089251,-0.01110772,0.0,0 STARLINK-5143,1 54089U 22136AQ  22334.25001157 -.01110772  00000-0 -89251-2 0  9993,2 54089  53.2173 306.7527 0004031 310.3894 168.0480 15.72964925  6895,6728.565,91.547,353.14300000000014,347.718,0.0
54089.0,STARLINK-5143,PAYLOAD,2022-11-30 14:00:01,15.72165815,0.0005882999999999,53.2174,305.1035,280.7586,285.8949,-0.0094901,-0.01139148,0.0,0 STARLINK-5143,1 54089U 22136AQ  22334.58335648 -.01139148  00000-0 -94901-2 0  9990,2 54089  53.2174 305.1035 0005883 280.7586 285.8949 15.72165815  1307,6730.845,91.593,356.67,348.751,0.0
54089.0,STARLINK-5143,PAYLOAD,2022-11-30 22:00:00,15.71336506,0.0006881,53.2175,303.4563,270.1978,23.5711,-0.0095648,-0.0111211,0.0,0 STARLINK-5143,1 54089U 22136AQ  22334.91667824 -.01112110  00000-0 -95648-2 0  9990,2 54089  53.2175 303.4563 0006881 270.1978  23.5711 15.71336506  6992,6733.2130000000025,91.642,359.711,350.445,0.0
54089.0,STARLINK-5143,PAYLOAD,2022-12-01 14:00:01,15.69730151,0.0002921999999999,53.2174,300.1712,272.3813,192.7973,-0.010618,-0.01146481,0.0,0 STARLINK-5143,1 54089U 22136AQ  22335.58334491 -.01146481  00000-0 -10618-1 0  9996,2 54089  53.2174 300.1712 0002922 272.3813 192.7973 15.69730151  1305,6737.806,91.736,361.64,357.702,0.0
54089.0,STARLINK-5143,PAYLOAD,2022-12-01 22:00:00,15.68828627,0.0004711,53.2168,298.5314,268.8947,280.5659,-0.0097354,-0.01026349,0.0,0 STARLINK-5143,1 54089U 22136AQ  22335.91667824 -.01026349  00000-0 -97354-2 0  9995,2 54089  53.2168 298.5314 0004711 268.8947 280.5659 15.68828627  1304,6740.387,91.788,365.427,359.077,0.0
54089.0,STARLINK-5143,PAYLOAD,2022-12-02 00:00:00,15.68683585,0.0004112,53.2172,298.1217,268.1693,32.1679,-0.010542,-0.01096211,0.0,0 STARLINK-5143,1 54089U 22136AQ  22336.00001157 -.01096211  00000-0 -10542-1 0  9995,2 54089  53.2172 298.1217 0004112 268.1693  32.1679 15.68683585  7168,6740.803000000001,91.797,365.439,359.896,0.0
54089.0,STARLINK-5143,PAYLOAD,2022-12-02 06:00:00,15.6808135,4.3e-06,53.2175,296.8945,37.4644,235.2271,-0.010984,-0.01128436,0.0,0 STARLINK-5143,1 54089U 22136AQ  22336.25001157 -.01128436  00000-0 -10984-1 0  9997,2 54089  53.2175 296.8945 0000043  37.4644 235.2271 15.68081350  7207,6742.528,91.832,364.422,364.364,0.0
54089.0,STARLINK-5143,PAYLOAD,2022-12-02 14:00:01,15.67273875,6.69e-05,53.2169,295.2576,74.208,280.7677,-0.011461,-0.01138219,0.0,0 STARLINK-5143,1 54089U 22136AQ  22336.58334491 -.01138219  00000-0 -11461-1 0  9994,2 54089  53.2169 295.2576 0000669  74.2080 280.7677 15.67273875  1304,6744.844,91.879,367.16,366.258,0.0
54089.0,STARLINK-5143,PAYLOAD,2022-12-02 22:00:00,15.66486144,0.0001113,53.2164,293.6231,72.1418,4.1279,-0.012218,-0.01171634,0.0,0 STARLINK-5143,1 54089U 22136AQ  22336.91667824 -.01171634  00000-0 -12218-1 0  9999,2 54089  53.2164 293.6231 0001113  72.1418   4.1279 15.66486144  1306,6747.105,91.925,369.721,368.219,0.0
54089.0,STARLINK-5143,PAYLOAD,2022-12-03 00:00:00,15.66259523,0.0001264,53.2169,293.215,75.9808,110.4754,-0.011983,-0.01141705,0.0,0 STARLINK-5143,1 54089U 22136AQ  22337.00001157 -.01141705  00000-0 -11983-1 0  9995,2 54089  53.2169 293.2150 0001264  75.9808 110.4754 15.66259523  7324,6747.755999999999,91.939,370.474,368.768,0.0
54089.0,STARLINK-5143,PAYLOAD,2022-12-03 14:00:01,15.64904386,0.0001216,53.2168,290.3617,72.9362,162.9938,-0.013784,-0.0123305,0.0,0 STARLINK-5143,1 54089U 22136AQ  22337.58334491 -.01233050  00000-0 -13784-1 0  9994,2 54089  53.2168 290.3617 0001216  72.9362 162.9938 15.64904386  1308,6751.651,92.018,374.337,372.695,0.0
54089.0,STARLINK-5143,PAYLOAD,2022-12-03 22:00:00,15.64012116,0.0001077,53.2169,288.7326,73.5494,240.7941,-0.012931,-0.01126999,0.0,0 STARLINK-5143,1 54089U 22136AQ  22337.91667824 -.01126999  00000-0 -12931-1 0  9996,2 54089  53.2169 288.7326 0001077  73.5494 240.7941 15.64012116  1305,6754.218000000003,92.071,376.811,375.356,0.0
54089.0,STARLINK-5143,PAYLOAD,2022-12-04 14:00:01,15.62401839,0.0001214,53.2168,285.4828,59.9698,48.1813,-0.014102,-0.01150752,0.0,0 STARLINK-5143,1 54089U 22136AQ  22338.58334491 -.01150752  00000-0 -14102-1 0  9997,2 54089  53.2168 285.4828 0001214  59.9698  48.1813 15.62401839  1302,6758.858,92.166,381.544,379.903,0.0
54089.0,STARLINK-5143,PAYLOAD,2022-12-04 22:00:00,15.61587385,0.0001355,53.2165,283.86,62.2509,121.3412,-0.014523,-0.01148214,0.0,0 STARLINK-5143,1 54089U 22136AQ  22338.91667824 -.01148214  00000-0 -14523-1 0  9990,2 54089  53.2165 283.8600 0001355  62.2509 121.3412 15.61587385  1302,6761.208000000001,92.214,383.989,382.157,0.0
54089.0,STARLINK-5143,PAYLOAD,2022-12-05 14:00:01,15.59974433,0.000103,53.2168,280.622,76.1041,255.4944,-0.015764,-0.01168437,0.0,0 STARLINK-5143,1 54089U 22136AQ  22339.58335648 -.01168437  00000-0 -15764-1 0  9997,2 54089  53.2168 280.6220 0001030  76.1041 255.4944 15.59974433  1303,6765.868,92.309,388.43,387.036,0.0
54089.0,STARLINK-5143,PAYLOAD,2022-12-05 16:00:00,15.59744938,0.000114,53.2171,280.217,70.3822,9.3831,-0.015369,-0.01132893,0.0,0 STARLINK-5143,1 54089U 22136AQ  22339.66667824 -.01132893  00000-0 -15369-1 0  9998,2 54089  53.2171 280.2170 0001140  70.3822   9.3831 15.59744938  7742,6766.531999999997,92.323,389.168,387.625,0.0
54089.0,STARLINK-5143,PAYLOAD,2022-12-05 22:00:01,15.59135826,0.0001085999999999,53.2176,279.0045,72.4123,331.7066,-0.015755,-0.01134351,0.0,0 STARLINK-5143,1 54089U 22136AQ  22339.91668981 -.01134351  00000-0 -15755-1 0  9991,2 54089  53.2176 279.0045 0001086  72.4123 331.7066 15.59135826  1308,6768.294,92.359,390.894,389.424,0.0
54089.0,STARLINK-5143,PAYLOAD,2022-12-06 14:00:01,15.57525193,0.0001277,53.2171,275.7786,68.9581,117.2329,-0.017099,-0.01155749,0.0,0 STARLINK-5143,1 54089U 22136AQ  22340.58335648 -.01155749  00000-0 -17099-1 0  9994,2 54089  53.2171 275.7786 0001277  68.9581 117.2329 15.57525193  1305,6772.959,92.454,395.689,393.959,0.0
54089.0,STARLINK-5143,PAYLOAD,2022-12-06 16:00:00,15.57302871,0.0001087,53.2172,275.3752,73.8427,219.7783,-0.016827,-0.01130448,0.0,0 STARLINK-5143,1 54089U 22136AQ  22340.66667824 -.01130448  00000-0 -16827-1 0  9994,2 54089  53.2172 275.3752 0001087  73.8427 219.7783 15.57302871  7908,6773.604,92.468,396.205,394.732,0.0
54089.0,STARLINK-5143,PAYLOAD,2022-12-06 22:00:00,15.56696199,0.0001175,53.2172,274.1678,75.4441,180.2639,-0.0172979999999999,-0.01135374,0.0,0 STARLINK-5143,1 54089U 22136AQ  22340.91667824 -.01135374  00000-0 -17298-1 0  9998,2 54089  53.2172 274.1678 0001175  75.4441 180.2639 15.56696199  1302,6775.363,92.504,398.025,396.432,0.0
54089.0,STARLINK-5143,PAYLOAD,2022-12-07 14:00:01,15.54568759,9.85e-05,53.2179,270.9525,72.2839,319.9001,-0.007073,-0.00449607,0.0,0 STARLINK-5143,1 54089U 22136AQ  22341.58334491 -.00449607  00000-0 -70730-2 0  9990,2 54089  53.2179 270.9525 0000985  72.2839 319.9001 15.54568759  8048,6781.543000000002,92.63,404.076,402.741,0.0
54089.0,STARLINK-5143,PAYLOAD,2022-12-07 22:00:00,15.53664895,0.0001032,53.2168,269.347,86.6747,12.204,-0.005358,-0.00334385,0.0,0 STARLINK-5143,1 54089U 22136AQ  22341.91667824 -.00334385  00000-0 -53580-2 0  9996,2 54089  53.2168 269.3470 0001032  86.6747  12.2040 15.53664895  1303,6784.1730000000025,92.684,406.739,405.338,0.0
54089.0,STARLINK-5143,PAYLOAD,2022-12-08 00:00:00,15.53926484,0.0001235,53.2173,268.9464,93.6557,111.4713,-0.015911,-0.00957948,0.0,0 STARLINK-5143,1 54089U 22136AQ  22342.00001157 -.00957948  00000-0 -15911-1 0  9999,2 54089  53.2173 268.9464 0001235  93.6557 111.4713 15.53926484  8108,6783.4119999999975,92.668,406.115,404.439,0.0
54089.0,STARLINK-5143,PAYLOAD,2022-12-08 08:00:01,15.53235769,0.0001148,53.2171,267.3463,84.9713,185.5169,-0.019587,-0.0113137,0.0,0 STARLINK-5143,1 54089U 22136AQ  22342.33334491 -.01131370  00000-0 -19587-1 0  9992,2 54089  53.2171 267.3463 0001148  84.9713 185.5169 15.53235769  8159,6785.4230000000025,92.71,408.067,406.509,0.0
54089.0,STARLINK-5143,PAYLOAD,2022-12-08 14:00:01,15.52642712,0.0001221,53.2172,266.1451,75.6005,153.3019,-0.020471,-0.01154618,0.0,0 STARLINK-5143,1 54089U 22136AQ  22342.58334491 -.01154618  00000-0 -20471-1 0  9993,2 54089  53.2172 266.1451 0001221  75.6005 153.3019 15.52642712  1303,6787.151,92.745,409.844,408.187,0.0
